NORAD_CAT_ID,OBJECT_NAME,OBJECT_TYPE,EPOCH,MEAN_MOTION,ECCENTRICITY,INCLINATION,RA_OF_ASC_NODE,ARG_OF_PERICENTER,MEAN_ANOMALY,BSTAR,MEAN_MOTION_DOT,MEAN_MOTION_DDOT,TLE_LINE0,TLE_LINE1,TLE_LINE2,SEMIMAJOR_AXIS,PERIOD,APOGEE,PERIGEE,DECAYED
53178.0,STARLINK-4280,PAYLOAD,2022-08-21 22:00:00,15.73166093,0.0002151999999999,53.2159,231.523,23.229,342.5531,0.00058594,0.00082306,0.0,0 STARLINK-4280,1 53178U 22083AY  22233.91667824  .00082306  00000-0  58594-3 0  9997,2 53178  53.2159 231.5230 0002152  23.2290 342.5531 15.73166093  6218,6727.9919999999975,91.535,351.305,348.409,0.0
53178.0,STARLINK-4280,PAYLOAD,2022-08-22 12:00:00,15.73221528,0.0002426,53.2151,228.6387,21.032,50.3837,0.00040686,0.00056925,0.0,0 STARLINK-4280,1 53178U 22083AY  22234.50001157  .00056925  00000-0  40686-3 0  9995,2 53178  53.2151 228.6387 0002426  21.0320  50.3837 15.73221528  6302,6727.834,91.532,351.331,348.06699999999995,0.0
53178.0,STARLINK-4280,PAYLOAD,2022-08-22 20:00:01,15.73244991,0.0002070999999999,53.2152,226.9871,19.5552,140.8415,-0.00023689,-0.00033801,0.0,0 STARLINK-4280,1 53178U 22083AY  22234.83334491 -.00033801  00000-0 -23689-3 0  9995,2 53178  53.2152 226.9871 0002071  19.5552 140.8415 15.73244991  6369,6727.767,91.531,351.025,348.23900000000015,0.0
53178.0,STARLINK-4280,PAYLOAD,2022-08-22 22:00:00,15.73230219,0.0002032999999999,53.2153,226.5745,20.0635,252.5819,-0.00011656,-0.00016969,0.0,0 STARLINK-4280,1 53178U 22083AY  22234.91667824 -.00016969  00000-0 -11656-3 0  9990,2 53178  53.2153 226.5745 0002033  20.0635 252.5819 15.73230219  1309,6727.809,91.531,351.042,348.306,0.0
53178.0,STARLINK-4280,PAYLOAD,2022-08-23 04:00:00,15.73226199,0.0002158,53.2155,225.3389,15.9488,233.404,-0.00069242,-0.00096807,0.0,0 STARLINK-4280,1 53178U 22083AY  22235.16667824 -.00096807  00000-0 -69242-3 0  9991,2 53178  53.2155 225.3389 0002158  15.9488 233.4040 15.73226199  6412,6727.82,91.532,351.13699999999994,348.2340000000001,0.0
53178.0,STARLINK-4280,PAYLOAD,2022-08-23 12:00:00,15.73162174,0.0002323,53.2152,223.6901,10.9843,327.2868,0.00031229,0.00043366,0.0,0 STARLINK-4280,1 53178U 22083AY  22235.50001157  .00043366  00000-0  31229-3 0  9994,2 53178  53.2152 223.6901 0002323  10.9843 327.2868 15.73162174  6461,6728.003000000002,91.535,351.431,348.305,0.0
53178.0,STARLINK-4280,PAYLOAD,2022-08-23 14:00:01,15.73188061,0.000226,53.2153,223.277,12.1004,78.3879,-6.95e-06,-1.596e-05,0.0,0 STARLINK-4280,1 53178U 22083AY  22235.58334491 -.00001596  00000-0 -69500-5 0  9998,2 53178  53.2153 223.2770 0002260  12.1004  78.3879 15.73188061  1302,6727.929,91.534,351.315,348.274,0.0
53178.0,STARLINK-4280,PAYLOAD,2022-08-23 22:00:01,15.73179666,0.0002052,53.2153,221.6261,15.8107,163.65200000000004,0.00042565,0.00059491,0.0,0 STARLINK-4280,1 53178U 22083AY  22235.91668981  .00059491  00000-0  42565-3 0  9994,2 53178  53.2153 221.6261 0002052  15.8107 163.6520 15.73179666  1304,6727.953,91.534,351.199,348.43800000000016,0.0
53178.0,STARLINK-4280,PAYLOAD,2022-08-24 04:00:00,15.73214827,0.0002244,53.215,220.3906,15.4824,140.6018,-2.6745e-05,-4.376e-05,0.0,0 STARLINK-4280,1 53178U 22083AY  22236.16667824 -.00004376  00000-0 -26745-4 0  9994,2 53178  53.2150 220.3906 0002244  15.4824 140.6018 15.73214827  6578,6727.853,91.532,351.228,348.208,0.0
53178.0,STARLINK-4280,PAYLOAD,2022-08-24 14:00:01,15.73245149,0.0002272,53.2146,218.3286,15.9927,341.2714,-2.0242e-05,-3.468e-05,0.0,0 STARLINK-4280,1 53178U 22083AY  22236.58334491 -.00003468  00000-0 -20242-4 0  9998,2 53178  53.2146 218.3286 0002272  15.9927 341.2714 15.73245149  1300,6727.766,91.531,351.16,348.103,0.0
53178.0,STARLINK-4280,PAYLOAD,2022-08-24 20:00:01,15.73230629,0.0002112,53.2147,217.0899,19.2361,314.7603,0.0001813,0.00024933,0.0,0 STARLINK-4280,1 53178U 22083AY  22236.83334491  .00024933  00000-0  18130-3 0  9996,2 53178  53.2147 217.0899 0002112  19.2361 314.7603 15.73230629  6673,6727.808000000001,91.531,351.094,348.25199999999984,0.0
53178.0,STARLINK-4280,PAYLOAD,2022-08-24 22:00:00,15.73262583,0.0002129,53.215,216.6775,22.4749,63.7559,-0.00029383,-0.00041769,0.0,0 STARLINK-4280,1 53178U 22083AY  22236.91667824 -.00041769  00000-0 -29383-3 0  9994,2 53178  53.2150 216.6775 0002129  22.4749  63.7559 15.73262583  1309,6727.717,91.53,351.014,348.149,0.0
53178.0,STARLINK-4280,PAYLOAD,2022-08-25 06:00:02,15.73194467,0.0002447,53.2151,215.0298,23.8313,151.459,0.00012627,0.00017133,0.0,0 STARLINK-4280,1 53178U 22083AY  22237.25002315  .00017133  00000-0  12627-3 0  9999,2 53178  53.2151 215.0298 0002447  23.8313 151.4590 15.73194467  6746,6727.911,91.534,351.422,348.13,0.0
53178.0,STARLINK-4280,PAYLOAD,2022-08-25 12:00:00,15.73206542,0.0002041,53.2171,213.7945,12.2669,139.6085,-2.5579e-05,-4.211e-05,0.0,0 STARLINK-4280,1 53178U 22083AY  22237.50001157 -.00004211  00000-0 -25579-4 0  9996,2 53178  53.2171 213.7945 0002041  12.2669 139.6085 15.73206542  6787,6727.877,91.533,351.115,348.36800000000005,0.0
53178.0,STARLINK-4280,PAYLOAD,2022-08-25 14:00:01,15.73206211,0.0001989,53.2173,213.3814,11.4038,252.7064,-2.9835e-05,-4.807e-05,0.0,0 STARLINK-4280,1 53178U 22083AY  22237.58334491 -.00004807  00000-0 -29835-4 0  9994,2 53178  53.2173 213.3814 0001989  11.4038 252.7064 15.73206211  1301,6727.877,91.533,351.081,348.404,0.0
53178.0,STARLINK-4280,PAYLOAD,2022-08-25 18:00:00,15.73238587,0.000221,53.2158,212.5536,23.7315,104.9307,-0.00028952,-0.00041127,0.0,0 STARLINK-4280,1 53178U 22083AY  22237.75001157 -.00041127  00000-0 -28952-3 0  9997,2 53178  53.2158 212.5536 0002210  23.7315 104.9307 15.73238587  6829,6727.785,91.531,351.13699999999994,348.163,0.0
53178.0,STARLINK-4280,PAYLOAD,2022-08-25 22:00:00,15.73284664,0.0002156,53.2162,211.7275,22.0743,331.0599,-0.0014312,-0.00197581,0.0,0 STARLINK-4280,1 53178U 22083AY  22237.91667824 -.00197581  00000-0 -14312-2 0  9994,2 53178  53.2162 211.7275 0002156  22.0743 331.0599 15.73284664  1302,6727.654,91.528,350.969,348.0680000000001,0.0
53178.0,STARLINK-4280,PAYLOAD,2022-08-26 06:00:00,15.73093633,0.0002396999999999,53.2169,210.0793,20.0022,62.1083,-0.0042308,-0.0055448,0.0,0 STARLINK-4280,1 53178U 22083AY  22238.25001157 -.00554480  00000-0 -42308-2 0  9994,2 53178  53.2169 210.0793 0002397  20.0022  62.1083 15.73093633  6894,6728.198,91.539,351.676,348.451,0.0
53178.0,STARLINK-4280,PAYLOAD,2022-08-26 14:00:01,15.72769275,0.000234,53.2172,208.4263,20.3127,150.4353,-0.008525,-0.01057054,0.0,0 STARLINK-4280,1 53178U 22083AY  22238.58335648 -.01057054  00000-0 -85250-2 0  9994,2 53178  53.2172 208.4263 0002340  20.3127 150.4353 15.72769275  6957,6729.123000000001,91.558,352.56300000000016,349.414,0.0
53178.0,STARLINK-4280,PAYLOAD,2022-08-26 22:00:00,15.72008514,0.0002129,53.2172,206.7737,22.1439,236.4849,-0.0087746,-0.01053364,0.0,0 STARLINK-4280,1 53178U 22083AY  22238.91667824 -.01053364  00000-0 -87746-2 0  9997,2 53178  53.2172 206.7737 0002129  22.1439 236.4849 15.72008514  1306,6731.294,91.603,354.592,351.726,0.0
53178.0,STARLINK-4280,PAYLOAD,2022-08-27 14:00:01,15.7048935,0.0001686999999999,53.2174,203.4773,28.5757,43.2069,-0.0093613999999999,-0.01053395,0.0,0 STARLINK-4280,1 53178U 22083AY  22239.58334491 -.01053395  00000-0 -93614-2 0  9997,2 53178  53.2174 203.4773 0001687  28.5757  43.2069 15.70489350  1300,6735.634,91.691,358.636,356.36300000000006,0.0
53178.0,STARLINK-4280,PAYLOAD,2022-08-27 22:00:00,15.69728418,0.0001688,53.2176,201.8306,37.8255,119.1654,-0.0096281,-0.01049714,0.0,0 STARLINK-4280,1 53178U 22083AY  22239.91667824 -.01049714  00000-0 -96281-2 0  9996,2 53178  53.2176 201.8306 0001688  37.8255 119.1654 15.69728418  1305,6737.811,91.736,360.81300000000016,358.539,0.0
53178.0,STARLINK-4280,PAYLOAD,2022-08-28 04:00:00,15.69158462,0.0001617,53.2173,200.5995,40.5692,89.7282,-0.0098663,-0.01050279,0.0,0 STARLINK-4280,1 53178U 22083AY  22240.16667824 -.01050279  00000-0 -98663-2 0  9999,2 53178  53.2173 200.5995 0001617  40.5692  89.7282 15.69158462  7200,6739.443,91.769,362.397,360.218,0.0
53178.0,STARLINK-4280,PAYLOAD,2022-08-28 14:00:01,15.68212224,0.0001402,53.2172,198.545,38.3635,286.3042,-0.010313,-0.01054941,0.0,0 STARLINK-4280,1 53178U 22083AY  22240.58334491 -.01054941  00000-0 -10313-1 0  9991,2 53178  53.2172 198.5450 0001402  38.3635 286.3042 15.68212224  1305,6742.153,91.824,364.963,363.073,0.0
53178.0,STARLINK-4280,PAYLOAD,2022-08-28 20:00:01,15.67639592,0.0001440999999999,53.2172,197.3136,40.4524,256.1547,-0.010502,-0.01049803,0.0,0 STARLINK-4280,1 53178U 22083AY  22240.83334491 -.01049803  00000-0 -10502-1 0  9990,2 53178  53.2172 197.3136 0001441  40.4524 256.1547 15.67639592  7308,6743.795,91.858,366.632,364.68800000000016,0.0
53178.0,STARLINK-4280,PAYLOAD,2022-08-28 22:00:00,15.67449834,0.0001544,53.2174,196.9041,35.2765,11.8623,-0.010579,-0.01049377,0.0,0 STARLINK-4280,1 53178U 22083AY  22240.91667824 -.01049377  00000-0 -10579-1 0  9998,2 53178  53.2174 196.9041 0001544  35.2765  11.8623 15.67449834  1306,6744.339,91.869,367.246,365.163,0.0
53178.0,STARLINK-4280,PAYLOAD,2022-08-29 14:00:01,15.65933874,0.0001458,53.2174,193.6294,47.6534,161.6859,-0.0113099999999999,-0.01054058,0.0,0 STARLINK-4280,1 53178U 22083AY  22241.58334491 -.01054058  00000-0 -11310-1 0  9999,2 53178  53.2174 193.6294 0001458  47.6534 161.6859 15.65933874  7429,6748.691,91.958,371.54,369.572,0.0
53178.0,STARLINK-4280,PAYLOAD,2022-08-29 22:00:00,15.6517272,0.0001334,53.2176,191.9942,50.1137,238.9578,-0.011615,-0.01050109,0.0,0 STARLINK-4280,1 53178U 22083AY  22241.91667824 -.01050109  00000-0 -11615-1 0  9996,2 53178  53.2176 191.9942 0001334  50.1137 238.9578 15.65172720  1305,6750.879,92.003,373.645,371.843,0.0
53178.0,STARLINK-4280,PAYLOAD,2022-08-30 14:00:01,15.63651852,0.0001508,53.2174,188.7312,40.6105,45.1874,-0.012311,-0.01047686,0.0,0 STARLINK-4280,1 53178U 22083AY  22242.58334491 -.01047686  00000-0 -12311-1 0  9991,2 53178  53.2174 188.7312 0001508  40.6105  45.1874 15.63651852  7578,6755.255999999999,92.092,378.139,376.102,0.0
